{"type": "FeatureCollection", "features": [ {"type": "Feature", "properties": {"norad_id": 66465, "name": "STARLINK-35448", "group": "last-30-days", "lat": 42.35340731262042, "lon": 154.4055018315318, "alt_km": 438.1572335638202, "timestamp": "2025-12-11T20:41:13.846230+00:00", "meta": {"OBJECT_NAME": "STARLINK-35448", "OBJECT_ID": "2025-262K", "EPOCH": "2025-12-11T14:00:01.999872", "MEAN_MOTION": 15.40621482, "ECCENTRICITY": 0.00011864, "INCLINATION": 43.0005, "RA_OF_ASC_NODE": 77.9731, "ARG_OF_PERICENTER": 288.8651, "MEAN_ANOMALY": 45.2442, "EPHEMERIS_TYPE": 0, "CLASSIFICATION_TYPE": "U", "NORAD_CAT_ID": 66465, "ELEMENT_SET_NO": 999, "REV_AT_EPOCH": 545, "BSTAR": 0.0013887063, "MEAN_MOTION_DOT": 0.00057996, "MEAN_MOTION_DDOT": 0}, "tle": {"line1": "1 66465U 25262K   25345.58335648  .00057996  00000+0  13887-2 0  9999", "line2": "2 66465  43.0005  77.9731 0001186 288.8651  45.2442 15.40621482  5457"}}, "geometry": {"type": "Point", "coordinates": [154.4055018315318, 42.35340731262042]}}, {"type": "Feature", "properties": {"norad_id": 66466, "name": "STARLINK-35388", "group": "last-30-days", "lat": 42.87572699796044, "lon": 171.23667463646288, "alt_km": 438.0787303690986, "timestamp": "2025-12-11T20:41:13.846240+00:00", "meta": {"OBJECT_NAME": "STARLINK-35388", "OBJECT_ID": "2025-262L", "EPOCH": "2025-12-11T14:00:01.999872", "MEAN_MOTION": 15.40622159, "ECCENTRICITY": 0.00010856, "INCLINATION": 43.0007, "RA_OF_ASC_NODE": 77.9404, "ARG_OF_PERICENTER": 269.3146, "MEAN_ANOMALY": 77.1795, "EPHEMERIS_TYPE": 0, "CLASSIFICATION_TYPE": "U", "NORAD_CAT_ID": 66466, "ELEMENT_SET_NO": 999, "REV_AT_EPOCH": 545, "BSTAR": 0.0018511039, "MEAN_MOTION_DOT": 0.0007761, "MEAN_MOTION_DDOT": 0}, "tle": {"line1": "1 66466U 25262L   25345.58335648  .00077610  00000+0  18511-2 0  9994", "line2": "2 66466  43.0007  77.9404 0001085 269.3146  77.1795 15.40622159  5455"}}, "geometry": {"type": "Point", "coordinates": [171.23667463646288, 42.87572699796044]}}, {"type": "Feature", "properties": {"norad_id": 66467, "name": "STARLINK-35682", "group": "last-30-days", "lat": 39.475146451034774, "lon": 138.50170379069937, "alt_km": 438.68701974645865, "timestamp": "2025-12-11T20:41:13.846252+00:00", "meta": {"OBJECT_NAME": "STARLINK-35682", "OBJECT_ID": "2025-262M", "EPOCH": "2025-12-11T14:00:01.999872", "MEAN_MOTION": 15.40810571, "ECCENTRICITY": 0.00010749, "INCLINATION": 43.0011, "RA_OF_ASC_NODE": 78.0029, "ARG_OF_PERICENTER": 254.7968, "MEAN_ANOMALY": 66.8895, "EPHEMERIS_TYPE": 0, "CLASSIFICATION_TYPE": "U", "NORAD_CAT_ID": 66467, "ELEMENT_SET_NO": 999, "REV_AT_EPOCH": 545, "BSTAR": -0.0076287501, "MEAN_MOTION_DOT": -0.00307588, "MEAN_MOTION_DDOT": 0}, "tle": {"line1": "1 66467U 25262M   25345.58335648 -.00307588  00000+0 -76288-2 0  9992", "line2": "2 66467  43.0011  78.0029 0001074 254.7968  66.8895 15.40810571  5457"}}, "geometry": {"type": "Point", "coordinates": [138.50170379069937, 39.475146451034774]}}, {"type": "Feature", "properties": {"norad_id": 66468, "name": "STARLINK-35331", "group": "last-30-days", "lat": 40.91760476785183, "lon": -172.14952970274916, "alt_km": 438.30594202446355, "timestamp": "2025-12-11T20:41:13.846262+00:00", "meta": {"OBJECT_NAME": "STARLINK-35331", "OBJECT_ID": "2025-262N", "EPOCH": "2025-12-11T14:00:01.999872", "MEAN_MOTION": 15.41510535, "ECCENTRICITY": 0.00015325, "INCLINATION": 43.0008, "RA_OF_ASC_NODE": 77.9118, "ARG_OF_PERICENTER": 278.1003, "MEAN_ANOMALY": 80.3864, "EPHEMERIS_TYPE": 0, "CLASSIFICATION_TYPE": "U", "NORAD_CAT_ID": 66468, "ELEMENT_SET_NO": 999, "REV_AT_EPOCH": 545, "BSTAR": -0.030243294, "MEAN_MOTION_DOT": -0.01181676, "MEAN_MOTION_DDOT": 0}, "tle": {"line1": "1 66468U 25262N   25345.58335648 -.01181676  00000+0 -30243-1 0  9992", "line2": "2 66468  43.0008  77.9118 0001532 278.1003  80.3864 15.41510535  5455"}}, "geometry": {"type": "Point", "coordinates": [-172.14952970274916, 40.91760476785183]}}, {"type": "Feature", "properties": {"norad_id": 66469, "name": "STARLINK-35451", "group": "last-30-days", "lat": 20.342361211565528, "lon": -127.25066670136455, "alt_km": 414.39731472340645, "timestamp": "2025-12-11T20:41:13.846273+00:00", "meta": {"OBJECT_NAME": "STARLINK-35451", "OBJECT_ID": "2025-262P", "EPOCH": "2025-12-10T16:12:32.558112", "MEAN_MOTION": 15.50219904, "ECCENTRICITY": 4.921e-05, "INCLINATION": 43.0005, "RA_OF_ASC_NODE": 83.1302, "ARG_OF_PERICENTER": 334.6757, "MEAN_ANOMALY": 25.4079, "EPHEMERIS_TYPE": 0, "CLASSIFICATION_TYPE": "U", "NORAD_CAT_ID": 66469, "ELEMENT_SET_NO": 999, "REV_AT_EPOCH": 524, "BSTAR": -0.0029160526, "MEAN_MOTION_DOT": -0.00165698, "MEAN_MOTION_DDOT": 0}, "tle": {"line1": "1 66469U 25262P   25344.67537683 -.00165698  00000+0 -29161-2 0  9998", "line2": "2 66469  43.0005  83.1302 0000492 334.6757  25.4079 15.50219904  5246"}}, "geometry": {"type": "Point", "coordinates": [-127.25066670136455, 20.342361211565528]}}, {"type": "Feature", "properties": {"norad_id": 66470, "name": "STARLINK-35655", "group": "last-30-days", "lat": 36.98693480630081, "lon": -157.65039303168803, "alt_km": 435.6295839300201, "timestamp": "2025-12-11T20:41:13.846285+00:00", "meta": {"OBJECT_NAME": "STARLINK-35655", "OBJECT_ID": "2025-262Q", "EPOCH": "2025-12-11T14:00:01.999872", "MEAN_MOTION": 15.43384617, "ECCENTRICITY": 0.00016277, "INCLINATION": 43.0001, "RA_OF_ASC_NODE": 77.888, "ARG_OF_PERICENTER": 285.1117, "MEAN_ANOMALY": 83.7914, "EPHEMERIS_TYPE": 0, "CLASSIFICATION_TYPE": "U", "NORAD_CAT_ID": 66470, "ELEMENT_SET_NO": 999, "REV_AT_EPOCH": 545, "BSTAR": -0.058271711, "MEAN_MOTION_DOT": -0.02371613, "MEAN_MOTION_DDOT": 0}, "tle": {"line1": "1 66470U 25262Q   25345.58335648 -.02371613  00000+0 -58272-1 0  9990", "line2": "2 66470  43.0001  77.8880 0001627 285.1117  83.7914 15.43384617  5450"}}, "geometry": {"type": "Point", "coordinates": [-157.65039303168803, 36.98693480630081]}}, {"type": "Feature", "properties": {"norad_id": 66471, "name": "STARLINK-35569", "group": "last-30-days", "lat": 32.27349121589287, "lon": -146.41383615289217, "alt_km": 432.4524960446279, "timestamp": "2025-12-11T20:41:13.846295+00:00", "meta": {"OBJECT_NAME": "STARLINK-35569", "OBJECT_ID": "2025-262R", "EPOCH": "2025-12-11T14:00:01.999872", "MEAN_MOTION": 15.44464067, "ECCENTRICITY": 0.00015331, "INCLINATION": 43.0001, "RA_OF_ASC_NODE": 77.8645, "ARG_OF_PERICENTER": 281.4131, "MEAN_ANOMALY": 96.6818, "EPHEMERIS_TYPE": 0, "CLASSIFICATION_TYPE": "U", "NORAD_CAT_ID": 66471, "ELEMENT_SET_NO": 999, "REV_AT_EPOCH": 545, "BSTAR": -0.048239713, "MEAN_MOTION_DOT": -0.02034886, "MEAN_MOTION_DDOT": 0}, "tle": {"line1": "1 66471U 25262R   25345.58335648 -.02034886  00000+0 -48240-1 0  9993", "line2": "2 66471  43.0001  77.8645 0001533 281.4131  96.6818 15.44464067  5456"}}, "geometry": {"type": "Point", "coordinates": [-146.41383615289217, 32.27349121589287]}}, {"type": "Feature", "properties": {"norad_id": 66472, "name": "STARLINK-35567", "group": "last-30-days", "lat": 22.94695084939996, "lon": -130.81166578023388, "alt_km": 425.61953176045336, "timestamp": "2025-12-11T20:41:13.846306+00:00", "meta": {"OBJECT_NAME": "STARLINK-35567", "OBJECT_ID": "2025-262S", "EPOCH": "2025-12-11T14:00:01.999872", "MEAN_MOTION": 15.47114268, "ECCENTRICITY": 0.00013768, "INCLINATION": 43.0002, "RA_OF_ASC_NODE": 77.831, "ARG_OF_PERICENTER": 267.8839, "MEAN_ANOMALY": 124.1968, "EPHEMERIS_TYPE": 0, "CLASSIFICATION_TYPE": "U", "NORAD_CAT_ID": 66472, "ELEMENT_SET_NO": 999, "REV_AT_EPOCH": 545, "BSTAR": -0.043091419, "MEAN_MOTION_DOT": -0.01997329, "MEAN_MOTION_DDOT": 0}, "tle": {"line1": "1 66472U 25262S   25345.58335648 -.01997329  00000+0 -43091-1 0  9992", "line2": "2 66472  43.0002  77.8310 0001376 267.8839 124.1968 15.47114268  5456"}}, "geometry": {"type": "Point", "coordinates": [-130.81166578023388, 22.94695084939996]}}, {"type": "Feature", "properties": {"norad_id": 66473, "name": "STARLINK-35568", "group": "last-30-days", "lat": 16.369292574305447, "lon": -122.19436042511812, "alt_km": 412.48595752459005, "timestamp": "2025-12-11T20:41:13.846316+00:00", "meta": {"OBJECT_NAME": "STARLINK-35568", "OBJECT_ID": "2025-262T", "EPOCH": "2025-12-11T07:39:08.069760", "MEAN_MOTION": 15.50526439, "ECCENTRICITY": 0.00047596, "INCLINATION": 42.9998, "RA_OF_ASC_NODE": 79.3576, "ARG_OF_PERICENTER": 252.6139, "MEAN_ANOMALY": 107.4201, "EPHEMERIS_TYPE": 0, "CLASSIFICATION_TYPE": "U", "NORAD_CAT_ID": 66473, "ELEMENT_SET_NO": 999, "REV_AT_EPOCH": 534, "BSTAR": 0.0038259112, "MEAN_MOTION_DOT": 0.00230458, "MEAN_MOTION_DDOT": 0}, "tle": {"line1": "1 66473U 25262T   25345.31884340  .00230458  00000+0  38259-2 0  9993", "line2": "2 66473  42.9998  79.3576 0004759 252.6139 107.4201 15.50526439  5346"}}, "geometry": {"type": "Point", "coordinates": [-122.19436042511812, 16.369292574305447]}}, {"type": "Feature", "properties": {"norad_id": 66474, "name": "STARLINK-35620", "group": "last-30-days", "lat": 14.668679772448444, "lon": -120.14140821702186, "alt_km": 412.27806667406, "timestamp": "2025-12-11T20:41:13.846327+00:00", "meta": {"OBJECT_NAME": "STARLINK-35620", "OBJECT_ID": "2025-262U", "EPOCH": "2025-12-11T07:38:34.341792", "MEAN_MOTION": 15.50718811, "ECCENTRICITY": 0.00019374, "INCLINATION": 43.0007, "RA_OF_ASC_NODE": 79.3535, "ARG_OF_PERICENTER": 275.2448, "MEAN_ANOMALY": 84.8191, "EPHEMERIS_TYPE": 0, "CLASSIFICATION_TYPE": "U", "NORAD_CAT_ID": 66474, "ELEMENT_SET_NO": 999, "REV_AT_EPOCH": 534, "BSTAR": 0.0036220445, "MEAN_MOTION_DOT": 0.00219297, "MEAN_MOTION_DDOT": 0}, "tle": {"line1": "1 66474U 25262U   25345.31845303  .00219297  00000+0  36220-2 0  9994", "line2": "2 66474  43.0007  79.3535 0001937 275.2448  84.8191 15.50718811  5347"}}, "geometry": {"type": "Point", "coordinates": [-120.14140821702186, 14.668679772448444]}}]}